KUIPER-00167            
1 65780U 25217U   25298.31531887  .00049067  00000+0  13822-2 0  9998
2 65780  51.8688 298.6924 0005073 200.3285 159.7500 15.35948389  4599
KUIPER-00168            
1 65781U 25217V   25298.21625781  .00039776  00000+0  10643-2 0  9999
2 65781  51.8733 298.7904 0002624  57.3793 302.7447 15.37651026  4583
KUIPER-00169            
1 65782U 25217W   25298.29614827  .00075060  00000+0  20354-2 0  9993
2 65782  51.8719 298.5727 0003238 150.0249 210.0923 15.36949326  4591
KUIPER-00170            
1 65783U 25217X   25298.31345244  .00026867  00000+0  76321-3 0  9998
2 65783  51.8676 298.6785 0005379 192.4808 167.6046 15.35978435  4593
KUIPER-00171            
1 65784U 25217Y   25298.25002315  .00474643  00000+0  10923-1 0  9994
2 65784  51.8682 298.7877 0004935 180.4367 287.3617 15.40225605  4716
KUIPER-00172            
1 65785U 25217Z   25298.28807882  .00079305  00000+0  21194-2 0  9999
2 65785  51.8725 298.5195 0002890 122.0887 238.0381 15.37375842  4595
KUIPER-00173            
1 65786U 25217AA  25298.29238468  .00036712  00000+0  99955-3 0  9995
2 65786  51.8709 298.5485 0002694 139.2326 220.8862 15.37149486  4596
KUIPER-00174            
1 65787U 25217AB  25298.28332679  .00046177  00000+0  12367-2 0  9991
2 65787  51.8730 298.4875 0003006  95.5410 264.5920 15.37554431  4599
